STARLINK-30494          
1 57970U 23151G   26068.36049035 -.00001272  00000+0 -35691-4 0  9993
2 57970  43.0027 192.4566 0001155 241.5536 118.5200 15.28417441137406
STARLINK-31532          
1 59349U 24060B   26068.82593453 -.00002790  00000+0 -91837-4 0  9994
2 59349  43.0036 259.0920 0001628 274.1104  85.9562 15.27594636110130
